[{"OBJECT_NAME":"STARLINK-32283","OBJECT_ID":"2024-249S","EPOCH":"2026-03-09T00:41:02.411232","MEAN_MOTION":15.27584278,"ECCENTRICITY":0.00019915,"INCLINATION":43.0015,"RA_OF_ASC_NODE":314.2453,"ARG_OF_PERICENTER":267.6192,"MEAN_ANOMALY":92.4432,"EPHEMERIS_TYPE":0,"CLASSIFICATION_TYPE":"U","NORAD_CAT_ID":62425,"ELEMENT_SET_NO":999,"REV_AT_EPOCH":6775,"BSTAR":0.0015652681,"MEAN_MOTION_DOT":0.00043069,"MEAN_MOTION_DDOT":0},{"OBJECT_NAME":"REAL","OBJECT_ID":"2025-154G","EPOCH":"2026-03-09T17:20:09.670560","MEAN_MOTION":15.28408058,"ECCENTRICITY":0.00018528,"INCLINATION":97.4133,"RA_OF_ASC_NODE":137.2581,"ARG_OF_PERICENTER":118.5876,"MEAN_ANOMALY":241.555,"EPHEMERIS_TYPE":0,"CLASSIFICATION_TYPE":"U","NORAD_CAT_ID":64875,"ELEMENT_SET_NO":999,"REV_AT_EPOCH":3483,"BSTAR":0.0008290401,"MEAN_MOTION_DOT":0.00022901,"MEAN_MOTION_DDOT":0}]
